{
  "type": "FeatureCollection",
  "features": [
    {
      "type": "Feature",
      "properties": {
        "norad_id": 2807,
        "name": "OPS 7218 (TRANSIT 16)",
        "group": "nnss",
        "lat": 2.9946194577634726,
        "lon": 174.20703971200842,
        "alt_km": 1060.9661037267224,
        "timestamp": "2025-12-06T11:28:11.331219+00:00",
        "meta_object_name": "OPS 7218 (TRANSIT 16)",
        "meta_object_id": "1967-048A",
        "meta_epoch": "2025-12-06T00:04:17.891904",
        "meta_mean_motion": 13.50720333,
        "meta_eccentricity": 0.00216313,
        "meta_inclination": 89.6733,
        "meta_ra_of_asc_node": 354.2398,
        "meta_arg_of_pericenter": 132.2001,
        "meta_mean_anomaly": 256.5241,
        "meta_ephemeris_type": 0,
        "meta_classification_type": "U",
        "meta_norad_cat_id": 2807,
        "meta_element_set_no": 999,
        "meta_rev_at_epoch": 88185,
        "meta_bstar": 0.00025066895,
        "meta_mean_motion_dot": 1.72e-06,
        "meta_mean_motion_ddot": 0,
        "tle_line1": "1 02807U 67048A   25340.00298486  .00000172  00000+0  25067-3 0  9995",
        "tle_line2": "2 02807  89.6733 354.2398 0021631 132.2001 256.5241 13.50720333881853"
      },
      "geometry": {
        "type": "Point",
        "coordinates": [
          174.20703971200842,
          2.9946194577634726
        ]
      }
    },
    {
      "type": "Feature",
      "properties": {
        "norad_id": 2965,
        "name": "OPS 4947 (TRANSIT 17)",
        "group": "nnss",
        "lat": 0.6788003891612207,
        "lon": -155.0956345030692,
        "alt_km": 1053.0026489191405,
        "timestamp": "2025-12-06T11:28:11.331240+00:00",
        "meta_object_name": "OPS 4947 (TRANSIT 17)",
        "meta_object_id": "1967-092A",
        "meta_epoch": "2025-12-05T21:14:54.385152",
        "meta_mean_motion": 13.53451157,
        "meta_eccentricity": 0.00458464,
        "meta_inclination": 89.2503,
        "meta_ra_of_asc_node": 24.9583,
        "meta_arg_of_pericenter": 255.0879,
        "meta_mean_anomaly": 279.1541,
        "meta_ephemeris_type": 0,
        "meta_classification_type": "U",
        "meta_norad_cat_id": 2965,
        "meta_element_set_no": 999,
        "meta_rev_at_epoch": 87004,
        "meta_bstar": 0.0003103912,
        "meta_mean_motion_dot": 2.21e-06,
        "meta_mean_motion_ddot": 0,
        "tle_line1": "1 02965U 67092A   25339.88535168  .00000221  00000+0  31039-3 0  9995",
        "tle_line2": "2 02965  89.2503  24.9583 0045846 255.0879 279.1541 13.53451157870048"
      },
      "geometry": {
        "type": "Point",
        "coordinates": [
          -155.0956345030692,
          0.6788003891612207
        ]
      }
    },
    {
      "type": "Feature",
      "properties": {
        "norad_id": 3133,
        "name": "OPS 7034 (TRANSIT 18)",
        "group": "nnss",
        "lat": 11.24103969568272,
        "lon": -86.38411193732532,
        "alt_km": 1122.2778108297516,
        "timestamp": "2025-12-06T11:28:11.331254+00:00",
        "meta_object_name": "OPS 7034 (TRANSIT 18)",
        "meta_object_id": "1968-012A",
        "meta_epoch": "2025-12-05T21:31:36.702048",
        "meta_mean_motion": 13.51563444,
        "meta_eccentricity": 0.0073213,
        "meta_inclination": 90.0272,
        "meta_ra_of_asc_node": 273.6197,
        "meta_arg_of_pericenter": 189.0449,
        "meta_mean_anomaly": 237.3312,
        "meta_ephemeris_type": 0,
        "meta_classification_type": "U",
        "meta_norad_cat_id": 3133,
        "meta_element_set_no": 999,
        "meta_rev_at_epoch": 56826,
        "meta_bstar": 0.00026501947,
        "meta_mean_motion_dot": 1.85e-06,
        "meta_mean_motion_ddot": 0,
        "tle_line1": "1 03133U 68012A   25339.89695257  .00000185  00000+0  26502-3 0  9991",
        "tle_line2": "2 03133  90.0272 273.6197 0073213 189.0449 237.3312 13.51563444568262"
      },
      "geometry": {
        "type": "Point",
        "coordinates": [
          -86.38411193732532,
          11.24103969568272
        ]
      }
    },
    {
      "type": "Feature",
      "properties": {
        "norad_id": 4507,
        "name": "NNSS 19 (TRANSIT 19)",
        "group": "nnss",
        "lat": -10.395285722779592,
        "lon": -125.46950245859003,
        "alt_km": 970.5314268804086,
        "timestamp": "2025-12-06T11:28:11.331266+00:00",
        "meta_object_name": "NNSS 19 (TRANSIT 19)",
        "meta_object_id": "1970-067A",
        "meta_epoch": "2025-12-05T17:44:56.395968",
        "meta_mean_motion": 13.51312382,
        "meta_eccentricity": 0.0171015,
        "meta_inclination": 90.0058,
        "meta_ra_of_asc_node": 234.529,
        "meta_arg_of_pericenter": 313.8154,
        "meta_mean_anomaly": 44.8961,
        "meta_ephemeris_type": 0,
        "meta_classification_type": "U",
        "meta_norad_cat_id": 4507,
        "meta_element_set_no": 999,
        "meta_rev_at_epoch": 72127,
        "meta_bstar": 0.00035550443,
        "meta_mean_motion_dot": 2.6e-06,
        "meta_mean_motion_ddot": 0,
        "tle_line1": "1 04507U 70067A   25339.73954162  .00000260  00000+0  35550-3 0  9993",
        "tle_line2": "2 04507  90.0058 234.5290 0171015 313.8154  44.8961 13.51312382721275"
      },
      "geometry": {
        "type": "Point",
        "coordinates": [
          -125.46950245859003,
          -10.395285722779592
        ]
      }
    },
    {
      "type": "Feature",
      "properties": {
        "norad_id": 6909,
        "name": "NNSS 20 (TRANSIT 20)",
        "group": "nnss",
        "lat": -33.18425780799564,
        "lon": -104.94636704995024,
        "alt_km": 1073.6189827829594,
        "timestamp": "2025-12-06T11:28:11.331278+00:00",
        "meta_object_name": "NNSS 20 (TRANSIT 20)",
        "meta_object_id": "1973-081A",
        "meta_epoch": "2025-12-05T18:07:21.224928",
        "meta_mean_motion": 13.71429624,
        "meta_eccentricity": 0.01565339,
        "meta_inclination": 89.8558,
        "meta_ra_of_asc_node": 255.1589,
        "meta_arg_of_pericenter": 98.9986,
        "meta_mean_anomaly": 262.893,
        "meta_ephemeris_type": 0,
        "meta_classification_type": "U",
        "meta_norad_cat_id": 6909,
        "meta_element_set_no": 999,
        "meta_rev_at_epoch": 80265,
        "meta_bstar": 0.00036936938,
        "meta_mean_motion_dot": 3.74e-06,
        "meta_mean_motion_ddot": 0,
        "tle_line1": "1 06909U 73081A   25339.75510677  .00000374  00000+0  36937-3 0  9997",
        "tle_line2": "2 06909  89.8558 255.1589 0156533  98.9986 262.8930 13.71429624802656"
      },
      "geometry": {
        "type": "Point",
        "coordinates": [
          -104.94636704995024,
          -33.18425780799564
        ]
      }
    },
    {
      "type": "Feature",
      "properties": {
        "norad_id": 10457,
        "name": "TRANSAT",
        "group": "nnss",
        "lat": 46.70709467987409,
        "lon": 79.19218947535275,
        "alt_km": 1089.5713757369704,
        "timestamp": "2025-12-06T11:28:11.331289+00:00",
        "meta_object_name": "TRANSAT",
        "meta_object_id": "1977-106A",
        "meta_epoch": "2025-12-05T19:46:13.467936",
        "meta_mean_motion": 13.48941961,
        "meta_eccentricity": 0.00247644,
        "meta_inclination": 89.6483,
        "meta_ra_of_asc_node": 78.8418,
        "meta_arg_of_pericenter": 209.8689,
        "meta_mean_anomaly": 262.2526,
        "meta_ephemeris_type": 0,
        "meta_classification_type": "U",
        "meta_norad_cat_id": 10457,
        "meta_element_set_no": 999,
        "meta_rev_at_epoch": 36650,
        "meta_bstar": 0.00020972293,
        "meta_mean_motion_dot": 1.42e-06,
        "meta_mean_motion_ddot": 0,
        "tle_line1": "1 10457U 77106A   25339.82376699  .00000142  00000+0  20972-3 0  9999",
        "tle_line2": "2 10457  89.6483  78.8418 0024764 209.8689 262.2526 13.48941961366509"
      },
      "geometry": {
        "type": "Point",
        "coordinates": [
          79.19218947535275,
          46.70709467987409
        ]
      }
    },
    {
      "type": "Feature",
      "properties": {
        "norad_id": 12458,
        "name": "NOVA 1",
        "group": "nnss",
        "lat": 13.590770870785242,
        "lon": -88.56202163438117,
        "alt_km": 1165.16300184807,
        "timestamp": "2025-12-06T11:28:11.331299+00:00",
        "meta_object_name": "NOVA 1",
        "meta_object_id": "1981-044A",
        "meta_epoch": "2025-12-05T20:44:08.520000",
        "meta_mean_motion": 13.23277436,
        "meta_eccentricity": 0.00156501,
        "meta_inclination": 89.8524,
        "meta_ra_of_asc_node": 91.4824,
        "meta_arg_of_pericenter": 120.9242,
        "meta_mean_anomaly": 2.3413,
        "meta_ephemeris_type": 0,
        "meta_classification_type": "U",
        "meta_norad_cat_id": 12458,
        "meta_element_set_no": 999,
        "meta_rev_at_epoch": 15095,
        "meta_bstar": 0.00017933302,
        "meta_mean_motion_dot": 8.5e-07,
        "meta_mean_motion_ddot": 0,
        "tle_line1": "1 12458U 81044A   25339.86398750  .00000085  00000+0  17933-3 0  9993",
        "tle_line2": "2 12458  89.8524  91.4824 0015650 120.9242   2.3413 13.23277436150954"
      },
      "geometry": {
        "type": "Point",
        "coordinates": [
          -88.56202163438117,
          13.590770870785242
        ]
      }
    }
  ]
}